{
  "norad_id": 53631,
  "name": "STARLINK-4599",
  "history": [
    {
      "epoch": "2026-03-28T13:56:06.285120Z",
      "apogee_km": 540.7420776547551,
      "perigee_km": 538.7151430309241,
      "latitude_deg": -4.991427008974932e-05,
      "longitude_deg": 113.81504571538365,
      "height_km": 540.5593068997957,
      "semi_major_axis_km": 6917.865610342839,
      "eccentricity": 0.0001465,
      "inclination_deg": 53.2149,
      "raan_deg": 148.8403,
      "arg_perigee_deg": 86.3447,
      "mean_anomaly_deg": 273.7712,
      "mean_motion_rev_day": 15.08844835
    }
  ]
}